ORBCOMM FM37            
1 33064U 08031E   24315.40760319  .00008083  00000+0  11319-2 0  9998
2 33064  48.4397 302.5446 0005288 155.5095 323.4086 14.78134597881664
ORBCOMM FM40            
1 33065U 08031F   24315.42317501  .00011869  00000+0  15794-2 0  9999
2 33065  48.4415 289.8216 0006655 165.0255 330.3463 14.79923630881730
VESSELSAT 1             
1 37840U 11058C   24315.69804536  .00000707  00000+0  24137-3 0  9996
2 37840  19.9635 335.8808 0013486 303.7989  56.1131 14.11260102675400
ORBCOMM FM109           
1 40086U 14040A   24315.76716392  .00003228  00000+0  73929-3 0  9990
2 40086  47.0036 327.3285 0002070   2.8323 357.2574 14.57542503549194
ORBCOMM FM107           
1 40087U 14040B   24315.73529915  .00003196  00000+0  73343-3 0  9995
2 40087  47.0054 328.4998 0001827 332.0132  28.0654 14.57476863549268
ORBCOMM FM106           
1 40088U 14040C   24315.89948672  .00004903  00000+0  87124-3 0  9997
2 40088  47.0585 167.0245 0017338 135.8404 224.3873 14.68264401551593
ORBCOMM FM111           
1 40089U 14040D   24315.26203484  .00013685  00000+0  16351-2 0  9994
2 40089  47.0035  48.8673 0032557 228.4111 131.3993 14.83910759557686
ORBCOMM FM104           
1 40090U 14040E   24315.83159640  .00002791  00000+0  66590-3 0  9990
2 40090  47.0057 359.0793 0017723 287.2088  72.6856 14.55927735548794
